{
  "links" : {
    "next" : "https://api.nasa.gov/neo/rest/v1/feed?start_date=1998-10-16&end_date=1998-10-16&detailed=true&api_key=t0TVs3DtDT2H8Oy2Zy8m2eVrNsAVKAexjcZXUckd",
    "prev" : "https://api.nasa.gov/neo/rest/v1/feed?start_date=1998-10-14&end_date=1998-10-14&detailed=true&api_key=t0TVs3DtDT2H8Oy2Zy8m2eVrNsAVKAexjcZXUckd",
    "self" : "https://api.nasa.gov/neo/rest/v1/feed?start_date=1998-10-15&end_date=1998-10-15&detailed=true&api_key=t0TVs3DtDT2H8Oy2Zy8m2eVrNsAVKAexjcZXUckd"
  },
  "element_count" : 10,
  "near_earth_objects" : {
    "1998-10-15" : [ {
      "links" : {
        "self" : "https://api.nasa.gov/neo/rest/v1/neo/3768606?api_key=t0TVs3DtDT2H8Oy2Zy8m2eVrNsAVKAexjcZXUckd"
      },
      "neo_reference_id" : "3768606",
      "name" : "(2017 BK123)",
      "nasa_jpl_url" : "http://ssd.jpl.nasa.gov/sbdb.cgi?sstr=3768606",
      "absolute_magnitude_h" : 20.1,
      "estimated_diameter" : {
        "kilometers" : {
          "estimated_diameter_min" : 0.2538370294,
          "estimated_diameter_max" : 0.5675968529
        },
        "meters" : {
          "estimated_diameter_min" : 253.8370293645,
          "estimated_diameter_max" : 567.5968528656
        },
        "miles" : {
          "estimated_diameter_min" : 0.1577269688,
          "estimated_diameter_max" : 0.3526882241
        },
        "feet" : {
          "estimated_diameter_min" : 832.7986794202,
          "estimated_diameter_max" : 1862.1944587557
        }
      },
      "is_potentially_hazardous_asteroid" : false,
      "close_approach_data" : [ {
        "close_approach_date" : "1998-10-15",
        "epoch_date_close_approach" : 908434800000,
        "relative_velocity" : {
          "kilometers_per_second" : "18.1145891295",
          "kilometers_per_hour" : "65212.5208661388",
          "miles_per_hour" : "40520.5244237405"
        },
        "miss_distance" : {
          "astronomical" : "0.2648227026",
          "lunar" : "103.0160293579",
          "kilometers" : "39616912",
          "miles" : "24616808"
        },
        "orbiting_body" : "Earth"
      } ],
      "orbital_data" : {
        "orbit_id" : "8",
        "orbit_determination_date" : "2017-04-06 08:20:23",
        "orbit_uncertainty" : "5",
        "minimum_orbit_intersection" : ".172999",
        "jupiter_tisserand_invariant" : "4.164",
        "epoch_osculation" : "2458000.5",
        "eccentricity" : ".7141098692874673",
        "semi_major_axis" : "1.520026279231925",
        "inclination" : "11.67987329626518",
        "ascending_node_longitude" : "88.78950811795104",
        "orbital_period" : "684.5025517028715",
        "perihelion_distance" : ".4345605116560998",
        "perihelion_argument" : "190.4941797441889",
        "aphelion_distance" : "2.605492046807751",
        "perihelion_time" : "2457894.760976547540",
        "mean_anomaly" : "55.6112586405804",
        "mean_motion" : ".5259293761643544",
        "equinox" : "J2000"
      }
    } ]
  }
}